{"type": "FeatureCollection", "features": [ {"type": "Feature", "properties": {"norad_id": 31287, "name": "FENGYUN 1C DEB", "group": "fengyun-1c-debris", "lat": -65.1851024600999, "lon": -169.58084703909262, "alt_km": 824.3839332797161, "timestamp": "2025-12-02T07:10:09.396904+00:00", "meta": {"OBJECT_NAME": "FENGYUN 1C DEB", "OBJECT_ID": "1999-025BNV", "EPOCH": "2025-12-01T09:50:16.615392", "MEAN_MOTION": 14.27891237, "ECCENTRICITY": 0.00285984, "INCLINATION": 99.4087, "RA_OF_ASC_NODE": 30.4771, "ARG_OF_PERICENTER": 95.3474, "MEAN_ANOMALY": 265.0968, "EPHEMERIS_TYPE": 0, "CLASSIFICATION_TYPE": "U", "NORAD_CAT_ID": 31287, "ELEMENT_SET_NO": 999, "REV_AT_EPOCH": 96524, "BSTAR": 0.0017630055, "MEAN_MOTION_DOT": 4.336e-05, "MEAN_MOTION_DDOT": 0}, "tle": {"line1": "1 31287U 99025BNV 25335.40991453  .00004336  00000+0  17630-2 0  9993", "line2": "2 31287  99.4087  30.4771 0028598  95.3474 265.0968 14.27891237965242"}}, "geometry": {"type": "Point", "coordinates": [-169.58084703909262, -65.1851024600999]}}, {"type": "Feature", "properties": {"norad_id": 31288, "name": "FENGYUN 1C DEB", "group": "fengyun-1c-debris", "lat": 41.31189873321438, "lon": 125.37591977804615, "alt_km": 580.2006354892856, "timestamp": "2025-12-02T07:10:09.396915+00:00", "meta": {"OBJECT_NAME": "FENGYUN 1C DEB", "OBJECT_ID": "1999-025BNW", "EPOCH": "2025-12-01T04:26:23.171424", "MEAN_MOTION": 14.93536221, "ECCENTRICITY": 0.00222434, "INCLINATION": 98.7482, "RA_OF_ASC_NODE": 131.9157, "ARG_OF_PERICENTER": 326.8214, "MEAN_ANOMALY": 210.0602, "EPHEMERIS_TYPE": 0, "CLASSIFICATION_TYPE": "U", "NORAD_CAT_ID": 31288, "ELEMENT_SET_NO": 999, "REV_AT_EPOCH": 97384, "BSTAR": 0.0051405607, "MEAN_MOTION_DOT": 0.00054755, "MEAN_MOTION_DDOT": 0}, "tle": {"line1": "1 31288U 99025BNW 25335.18499041  .00054755  00000+0  51406-2 0  9994", "line2": "2 31288  98.7482 131.9157 0022243 326.8214 210.0602 14.93536221973846"}}, "geometry": {"type": "Point", "coordinates": [125.37591977804615, 41.31189873321438]}}, {"type": "Feature", "properties": {"norad_id": 31293, "name": "FENGYUN 1C DEB", "group": "fengyun-1c-debris", "lat": -19.74271932411985, "lon": 161.332160375142, "alt_km": 771.7213252803995, "timestamp": "2025-12-02T07:10:09.396925+00:00", "meta": {"OBJECT_NAME": "FENGYUN 1C DEB", "OBJECT_ID": "1999-025BPB", "EPOCH": "2025-12-01T18:28:35.712192", "MEAN_MOTION": 14.30803308, "ECCENTRICITY": 0.0125347, "INCLINATION": 98.4232, "RA_OF_ASC_NODE": 343.868, "ARG_OF_PERICENTER": 277.6492, "MEAN_ANOMALY": 81.047, "EPHEMERIS_TYPE": 0, "CLASSIFICATION_TYPE": "U", "NORAD_CAT_ID": 31293, "ELEMENT_SET_NO": 999, "REV_AT_EPOCH": 65087, "BSTAR": 9.6159e-05, "MEAN_MOTION_DOT": 2.29e-06, "MEAN_MOTION_DDOT": 0}, "tle": {"line1": "1 31293U 99025BPB 25335.76985778  .00000229  00000+0  96159-4 0  9994", "line2": "2 31293  98.4232 343.8680 0125347 277.6492  81.0470 14.30803308650875"}}, "geometry": {"type": "Point", "coordinates": [161.332160375142, -19.74271932411985]}}, {"type": "Feature", "properties": {"norad_id": 31294, "name": "FENGYUN 1C DEB", "group": "fengyun-1c-debris", "lat": 51.22364998264236, "lon": 163.13107794554034, "alt_km": 868.6681029761221, "timestamp": "2025-12-02T07:10:09.396937+00:00", "meta": {"OBJECT_NAME": "FENGYUN 1C DEB", "OBJECT_ID": "1999-025BPC", "EPOCH": "2025-11-30T10:27:29.113632", "MEAN_MOTION": 14.15271063, "ECCENTRICITY": 0.01004597, "INCLINATION": 98.5427, "RA_OF_ASC_NODE": 330.5625, "ARG_OF_PERICENTER": 16.5048, "MEAN_ANOMALY": 343.9358, "EPHEMERIS_TYPE": 0, "CLASSIFICATION_TYPE": "U", "NORAD_CAT_ID": 31294, "ELEMENT_SET_NO": 999, "REV_AT_EPOCH": 96679, "BSTAR": 0.00052440304, "MEAN_MOTION_DOT": 1.029e-05, "MEAN_MOTION_DDOT": 0}, "tle": {"line1": "1 31294U 99025BPC 25334.43575363  .00001029  00000+0  52440-3 0  9996", "line2": "2 31294  98.5427 330.5625 0100459  16.5048 343.9358 14.15271063966795"}}, "geometry": {"type": "Point", "coordinates": [163.13107794554034, 51.22364998264236]}}, {"type": "Feature", "properties": {"norad_id": 31295, "name": "FENGYUN 1C DEB", "group": "fengyun-1c-debris", "lat": 46.871261210850186, "lon": 153.23967781772714, "alt_km": 933.8312581142864, "timestamp": "2025-12-02T07:10:09.396947+00:00", "meta": {"OBJECT_NAME": "FENGYUN 1C DEB", "OBJECT_ID": "1999-025BPD", "EPOCH": "2025-12-01T17:11:19.212576", "MEAN_MOTION": 13.9682361, "ECCENTRICITY": 0.0076757, "INCLINATION": 98.3168, "RA_OF_ASC_NODE": 161.6965, "ARG_OF_PERICENTER": 282.4651, "MEAN_ANOMALY": 76.7934, "EPHEMERIS_TYPE": 0, "CLASSIFICATION_TYPE": "U", "NORAD_CAT_ID": 31295, "ELEMENT_SET_NO": 999, "REV_AT_EPOCH": 95349, "BSTAR": 0.00012712, "MEAN_MOTION_DOT": 1.42e-06, "MEAN_MOTION_DDOT": 0}, "tle": {"line1": "1 31295U 99025BPD 25335.71619459  .00000142  00000+0  12712-3 0  9997", "line2": "2 31295  98.3168 161.6965 0076757 282.4651  76.7934 13.96823610953496"}}, "geometry": {"type": "Point", "coordinates": [153.23967781772714, 46.871261210850186]}}, {"type": "Feature", "properties": {"norad_id": 31296, "name": "FENGYUN 1C DEB", "group": "fengyun-1c-debris", "lat": -53.59321193472715, "lon": -97.47081103201654, "alt_km": 657.0100488380103, "timestamp": "2025-12-02T07:10:09.396957+00:00", "meta": {"OBJECT_NAME": "FENGYUN 1C DEB", "OBJECT_ID": "1999-025BPE", "EPOCH": "2025-11-29T10:49:22.391904", "MEAN_MOTION": 14.70292956, "ECCENTRICITY": 0.00211535, "INCLINATION": 99.0654, "RA_OF_ASC_NODE": 246.8626, "ARG_OF_PERICENTER": 264.2167, "MEAN_ANOMALY": 95.6624, "EPHEMERIS_TYPE": 0, "CLASSIFICATION_TYPE": "U", "NORAD_CAT_ID": 31296, "ELEMENT_SET_NO": 999, "REV_AT_EPOCH": 97154, "BSTAR": 0.0047548461, "MEAN_MOTION_DOT": 0.00028861, "MEAN_MOTION_DDOT": 0}, "tle": {"line1": "1 31296U 99025BPE 25333.45095361  .00028861  00000+0  47548-2 0  9999", "line2": "2 31296  99.0654 246.8626 0021153 264.2167  95.6624 14.70292956971543"}}, "geometry": {"type": "Point", "coordinates": [-97.47081103201654, -53.59321193472715]}}, {"type": "Feature", "properties": {"norad_id": 31297, "name": "FENGYUN 1C DEB", "group": "fengyun-1c-debris", "lat": -46.39708408976994, "lon": -77.07255603462607, "alt_km": 678.8257757266792, "timestamp": "2025-12-02T07:10:09.396967+00:00", "meta": {"OBJECT_NAME": "FENGYUN 1C DEB", "OBJECT_ID": "1999-025BPF", "EPOCH": "2025-12-01T09:00:37.251360", "MEAN_MOTION": 14.56980613, "ECCENTRICITY": 0.01395781, "INCLINATION": 98.9331, "RA_OF_ASC_NODE": 111.4441, "ARG_OF_PERICENTER": 157.277, "MEAN_ANOMALY": 268.281, "EPHEMERIS_TYPE": 0, "CLASSIFICATION_TYPE": "U", "NORAD_CAT_ID": 31297, "ELEMENT_SET_NO": 999, "REV_AT_EPOCH": 99150, "BSTAR": 0.00072440842, "MEAN_MOTION_DOT": 3.661e-05, "MEAN_MOTION_DDOT": 0}, "tle": {"line1": "1 31297U 99025BPF 25335.37543115  .00003661  00000+0  72441-3 0  9990", "line2": "2 31297  98.9331 111.4441 0139578 157.2770 268.2810 14.56980613991509"}}, "geometry": {"type": "Point", "coordinates": [-77.07255603462607, -46.39708408976994]}}, {"type": "Feature", "properties": {"norad_id": 31300, "name": "FENGYUN 1C DEB", "group": "fengyun-1c-debris", "lat": -57.543634349029794, "lon": 70.26642958029254, "alt_km": 886.8469320347631, "timestamp": "2025-12-02T07:10:09.396977+00:00", "meta": {"OBJECT_NAME": "FENGYUN 1C DEB", "OBJECT_ID": "1999-025BPJ", "EPOCH": "2025-11-30T21:48:56.369664", "MEAN_MOTION": 14.15033738, "ECCENTRICITY": 0.00614194, "INCLINATION": 99.5436, "RA_OF_ASC_NODE": 53.443, "ARG_OF_PERICENTER": 93.3693, "MEAN_ANOMALY": 332.6115, "EPHEMERIS_TYPE": 0, "CLASSIFICATION_TYPE": "U", "NORAD_CAT_ID": 31300, "ELEMENT_SET_NO": 999, "REV_AT_EPOCH": 96007, "BSTAR": 0.0013516235, "MEAN_MOTION_DOT": 2.617e-05, "MEAN_MOTION_DDOT": 0}, "tle": {"line1": "1 31300U 99025BPJ 25334.90898576  .00002617  00000+0  13516-2 0  9994", "line2": "2 31300  99.5436  53.4430 0061419  93.3693 332.6115 14.15033738960076"}}, "geometry": {"type": "Point", "coordinates": [70.26642958029254, -57.543634349029794]}}, {"type": "Feature", "properties": {"norad_id": 31302, "name": "FENGYUN 1C DEB", "group": "fengyun-1c-debris", "lat": 34.73040621700145, "lon": 10.938757956035197, "alt_km": 785.0847583977438, "timestamp": "2025-12-02T07:10:09.396987+00:00", "meta": {"OBJECT_NAME": "FENGYUN 1C DEB", "OBJECT_ID": "1999-025BPL", "EPOCH": "2025-11-29T01:45:33.845760", "MEAN_MOTION": 14.27396097, "ECCENTRICITY": 0.00277692, "INCLINATION": 99.4148, "RA_OF_ASC_NODE": 14.0729, "ARG_OF_PERICENTER": 94.2575, "MEAN_ANOMALY": 296.2281, "EPHEMERIS_TYPE": 0, "CLASSIFICATION_TYPE": "U", "NORAD_CAT_ID": 31302, "ELEMENT_SET_NO": 999, "REV_AT_EPOCH": 96163, "BSTAR": 0.0015278907, "MEAN_MOTION_DOT": 3.713e-05, "MEAN_MOTION_DDOT": 0}, "tle": {"line1": "1 31302U 99025BPL 25333.07330840  .00003713  00000+0  15279-2 0  9994", "line2": "2 31302  99.4148  14.0729 0027769  94.2575 296.2281 14.27396097961635"}}, "geometry": {"type": "Point", "coordinates": [10.938757956035197, 34.73040621700145]}}, {"type": "Feature", "properties": {"norad_id": 31303, "name": "FENGYUN 1C DEB", "group": "fengyun-1c-debris", "lat": 22.88940973618343, "lon": -10.885012731234191, "alt_km": 862.8498662166485, "timestamp": "2025-12-02T07:10:09.396997+00:00", "meta": {"OBJECT_NAME": "FENGYUN 1C DEB", "OBJECT_ID": "1999-025BPM", "EPOCH": "2025-12-01T19:08:47.721120", "MEAN_MOTION": 14.11017488, "ECCENTRICITY": 0.0011096, "INCLINATION": 98.7054, "RA_OF_ASC_NODE": 352.3384, "ARG_OF_PERICENTER": 182.3773, "MEAN_ANOMALY": 177.7347, "EPHEMERIS_TYPE": 0, "CLASSIFICATION_TYPE": "U", "NORAD_CAT_ID": 31303, "ELEMENT_SET_NO": 999, "REV_AT_EPOCH": 96164, "BSTAR": 0.00010615, "MEAN_MOTION_DOT": 1.48e-06, "MEAN_MOTION_DDOT": 0}, "tle": {"line1": "1 31303U 99025BPM 25335.79777455  .00000148  00000+0  10615-3 0  9992", "line2": "2 31303  98.7054 352.3384 0011096 182.3773 177.7347 14.11017488961648"}}, "geometry": {"type": "Point", "coordinates": [-10.885012731234191, 22.88940973618343]}}]}